[{"OBJECT_NAME":"ARKYD 6A","OBJECT_ID":"2018-004V","EPOCH":"2023-11-16T04:49:50.846880","MEAN_MOTION":15.63553105,"ECCENTRICITY":0.0004134,"INCLINATION":97.311,"RA_OF_ASC_NODE":41.5095,"ARG_OF_PERICENTER":282.5847,"MEAN_ANOMALY":77.4949,"EPHEMERIS_TYPE":0,"CLASSIFICATION_TYPE":"U","NORAD_CAT_ID":43130,"ELEMENT_SET_NO":999,"REV_AT_EPOCH":32583,"BSTAR":0.00092958,"MEAN_MOTION_DOT":0.00086774,"MEAN_MOTION_DDOT":0},{"OBJECT_NAME":"CNUSAIL-1","OBJECT_ID":"2018-004Y","EPOCH":"2023-11-17T00:15:52.330176","MEAN_MOTION":15.58052968,"ECCENTRICITY":0.0003735,"INCLINATION":97.3132,"RA_OF_ASC_NODE":40.7214,"ARG_OF_PERICENTER":291.9081,"MEAN_ANOMALY":68.1777,"EPHEMERIS_TYPE":0,"CLASSIFICATION_TYPE":"U","NORAD_CAT_ID":43133,"ELEMENT_SET_NO":999,"REV_AT_EPOCH":32585,"BSTAR":0.00083194,"MEAN_MOTION_DOT":0.00062734,"MEAN_MOTION_DDOT":0},{"OBJECT_NAME":"FOX-1D (AO-92)","OBJECT_ID":"2018-004AC","EPOCH":"2023-11-16T04:39:02.031264","MEAN_MOTION":15.66440081,"ECCENTRICITY":0.0003662,"INCLINATION":97.3115,"RA_OF_ASC_NODE":42.6252,"ARG_OF_PERICENTER":282.8762,"MEAN_ANOMALY":77.2089,"EPHEMERIS_TYPE":0,"CLASSIFICATION_TYPE":"U","NORAD_CAT_ID":43137,"ELEMENT_SET_NO":999,"REV_AT_EPOCH":32591,"BSTAR":0.0009411,"MEAN_MOTION_DOT":0.0009861,"MEAN_MOTION_DDOT":0},{"OBJECT_NAME":"CICERO 7","OBJECT_ID":"2018-004AJ","EPOCH":"2023-11-12T22:51:01.060704","MEAN_MOTION":16.26944402,"ECCENTRICITY":0.0009283,"INCLINATION":97.3097,"RA_OF_ASC_NODE":50.6433,"ARG_OF_PERICENTER":280.2242,"MEAN_ANOMALY":79.8004,"EPHEMERIS_TYPE":0,"CLASSIFICATION_TYPE":"U","NORAD_CAT_ID":43143,"ELEMENT_SET_NO":999,"REV_AT_EPOCH":32610,"BSTAR":0.00077798,"MEAN_MOTION_DOT":0.02592973,"MEAN_MOTION_DDOT":2.4144e-6},{"OBJECT_NAME":"LKW-3","OBJECT_ID":"2018-006A","EPOCH":"2023-11-17T03:04:13.577952","MEAN_MOTION":15.2311254,"ECCENTRICITY":0.0002983,"INCLINATION":97.5466,"RA_OF_ASC_NODE":89.1761,"ARG_OF_PERICENTER":212.2688,"MEAN_ANOMALY":147.8366,"EPHEMERIS_TYPE":0,"CLASSIFICATION_TYPE":"U","NORAD_CAT_ID":43146,"ELEMENT_SET_NO":999,"REV_AT_EPOCH":32486,"BSTAR":0.00036026,"MEAN_MOTION_DOT":8.431e-5,"MEAN_MOTION_DDOT":0},{"OBJECT_NAME":"ASNARO-2","OBJECT_ID":"2018-007A","EPOCH":"2023-11-17T03:20:04.757280","MEAN_MOTION":15.22110175,"ECCENTRICITY":0.0004578,"INCLINATION":97.4184,"RA_OF_ASC_NODE":325.6849,"ARG_OF_PERICENTER":93.814,"MEAN_ANOMALY":348.2275,"EPHEMERIS_TYPE":0,"CLASSIFICATION_TYPE":"U","NORAD_CAT_ID":43152,"ELEMENT_SET_NO":999,"REV_AT_EPOCH":32393,"BSTAR":-0.0012123,"MEAN_MOTION_DOT":-0.00027717,"MEAN_MOTION_DDOT":0},{"OBJECT_NAME":"XIAOXIANG-2","OBJECT_ID":"2018-008A","EPOCH":"2023-11-17T03:00:31.746816","MEAN_MOTION":15.3376405,"ECCENTRICITY":0.0012062,"INCLINATION":97.276,"RA_OF_ASC_NODE":10.5523,"ARG_OF_PERICENTER":122.2228,"MEAN_ANOMALY":238.0186,"EPHEMERIS_TYPE":0,"CLASSIFICATION_TYPE":"U","NORAD_CAT_ID":43155,"ELEMENT_SET_NO":999,"REV_AT_EPOCH":32202,"BSTAR":0.00072469,"MEAN_MOTION_DOT":0.00023683,"MEAN_MOTION_DDOT":0},{"OBJECT_NAME":"ZHOU ENLAI","OBJECT_ID":"2018-008B","EPOCH":"2023-11-17T04:01:24.569472","MEAN_MOTION":15.35420372,"ECCENTRICITY":0.0009602,"INCLINATION":97.2808,"RA_OF_ASC_NODE":11.0314,"ARG_OF_PERICENTER":123.0936,"MEAN_ANOMALY":237.1231,"EPHEMERIS_TYPE":0,"CLASSIFICATION_TYPE":"U","NORAD_CAT_ID":43156,"ELEMENT_SET_NO":999,"REV_AT_EPOCH":32197,"BSTAR":0.00083013,"MEAN_MOTION_DOT":0.00028599,"MEAN_MOTION_DDOT":0},{"OBJECT_NAME":"KIPP","OBJECT_ID":"2018-008C","EPOCH":"2023-11-17T02:43:36.577056","MEAN_MOTION":15.39500059,"ECCENTRICITY":0.0008143,"INCLINATION":97.2864,"RA_OF_ASC_NODE":12.175,"ARG_OF_PERICENTER":121.9552,"MEAN_ANOMALY":238.2486,"EPHEMERIS_TYPE":0,"CLASSIFICATION_TYPE":"U","NORAD_CAT_ID":43157,"ELEMENT_SET_NO":999,"REV_AT_EPOCH":32197,"BSTAR":0.0010778,"MEAN_MOTION_DOT":0.00042446,"MEAN_MOTION_DDOT":0},{"OBJECT_NAME":"QUANTUTONG 1","OBJECT_ID":"2018-008D","EPOCH":"2023-11-17T03:07:20.912160","MEAN_MOTION":15.29698934,"ECCENTRICITY":0.0010541,"INCLINATION":97.2849,"RA_OF_ASC_NODE":7.0245,"ARG_OF_PERICENTER":127.1956,"MEAN_ANOMALY":233.0248,"EPHEMERIS_TYPE":0,"CLASSIFICATION_TYPE":"U","NORAD_CAT_ID":43158,"ELEMENT_SET_NO":999,"REV_AT_EPOCH":32174,"BSTAR":0.00068696,"MEAN_MOTION_DOT":0.00019753,"MEAN_MOTION_DDOT":0},{"OBJECT_NAME":"JILIN-1 07","OBJECT_ID":"2018-008E","EPOCH":"2023-11-17T02:35:32.275680","MEAN_MOTION":15.15722711,"ECCENTRICITY":0.0012945,"INCLINATION":97.2736,"RA_OF_ASC_NODE":358.2424,"ARG_OF_PERICENTER":149.43,"MEAN_ANOMALY":210.769,"EPHEMERIS_TYPE":0,"CLASSIFICATION_TYPE":"U","NORAD_CAT_ID":43159,"ELEMENT_SET_NO":999,"REV_AT_EPOCH":32126,"BSTAR":0.00022593,"MEAN_MOTION_DOT":4.25e-5,"MEAN_MOTION_DDOT":0},{"OBJECT_NAME":"JILIN-1 08","OBJECT_ID":"2018-008F","EPOCH":"2023-11-17T03:39:01.249920","MEAN_MOTION":15.15515118,"ECCENTRICITY":0.0009182,"INCLINATION":97.2738,"RA_OF_ASC_NODE":358.0706,"ARG_OF_PERICENTER":159.2,"MEAN_ANOMALY":200.9609,"EPHEMERIS_TYPE":0,"CLASSIFICATION_TYPE":"U","NORAD_CAT_ID":43160,"ELEMENT_SET_NO":999,"REV_AT_EPOCH":32126,"BSTAR":0.00021126,"MEAN_MOTION_DOT":3.942e-5,"MEAN_MOTION_DDOT":0},{"OBJECT_NAME":"SBIRS GEO-3 (USA 282)","OBJECT_ID":"2018-009A","EPOCH":"2023-11-17T02:36:05.552640","MEAN_MOTION":1.00271493,"ECCENTRICITY":0.0001773,"INCLINATION":2.6445,"RA_OF_ASC_NODE":328.4666,"ARG_OF_PERICENTER":239.4722,"MEAN_ANOMALY":87.6541,"EPHEMERIS_TYPE":0,"CLASSIFICATION_TYPE":"U","NORAD_CAT_ID":43162,"ELEMENT_SET_NO":999,"REV_AT_EPOCH":2138,"BSTAR":0,"MEAN_MOTION_DOT":1.42e-6,"MEAN_MOTION_DDOT":0},{"OBJECT_NAME":"WEINA 1A","OBJECT_ID":"2018-011A","EPOCH":"2023-11-16T18:18:40.334976","MEAN_MOTION":14.92987344,"ECCENTRICITY":0.0002474,"INCLINATION":34.9969,"RA_OF_ASC_NODE":104.1045,"ARG_OF_PERICENTER":122.3822,"MEAN_ANOMALY":237.7122,"EPHEMERIS_TYPE":0,"CLASSIFICATION_TYPE":"U","NORAD_CAT_ID":43169,"ELEMENT_SET_NO":999,"REV_AT_EPOCH":31663,"BSTAR":0.00023076,"MEAN_MOTION_DOT":2.417e-5,"MEAN_MOTION_DDOT":0},{"OBJECT_NAME":"YAOGAN-30 K","OBJECT_ID":"2018-011B","EPOCH":"2023-11-17T02:24:47.799936","MEAN_MOTION":14.93423121,"ECCENTRICITY":0.0005908,"INCLINATION":34.996,"RA_OF_ASC_NODE":100.9642,"ARG_OF_PERICENTER":24.0878,"MEAN_ANOMALY":336.0102,"EPHEMERIS_TYPE":0,"CLASSIFICATION_TYPE":"U","NORAD_CAT_ID":43170,"ELEMENT_SET_NO":999,"REV_AT_EPOCH":31668,"BSTAR":0.00024457,"MEAN_MOTION_DOT":2.592e-5,"MEAN_MOTION_DDOT":0},{"OBJECT_NAME":"YAOGAN-30 L","OBJECT_ID":"2018-011C","EPOCH":"2023-11-17T02:16:21.374976","MEAN_MOTION":14.9341259,"ECCENTRICITY":0.0002681,"INCLINATION":34.9952,"RA_OF_ASC_NODE":100.8053,"ARG_OF_PERICENTER":62.077,"MEAN_ANOMALY":298.0206,"EPHEMERIS_TYPE":0,"CLASSIFICATION_TYPE":"U","NORAD_CAT_ID":43171,"ELEMENT_SET_NO":999,"REV_AT_EPOCH":31668,"BSTAR":0.00024668,"MEAN_MOTION_DOT":2.614e-5,"MEAN_MOTION_DDOT":0},{"OBJECT_NAME":"YAOGAN-30 M","OBJECT_ID":"2018-011D","EPOCH":"2023-11-17T02:05:59.601696","MEAN_MOTION":14.93418401,"ECCENTRICITY":0.0002848,"INCLINATION":34.9971,"RA_OF_ASC_NODE":100.9785,"ARG_OF_PERICENTER":118.7,"MEAN_ANOMALY":241.3992,"EPHEMERIS_TYPE":0,"CLASSIFICATION_TYPE":"U","NORAD_CAT_ID":43172,"ELEMENT_SET_NO":999,"REV_AT_EPOCH":31668,"BSTAR":0.00047654,"MEAN_MOTION_DOT":5.078e-5,"MEAN_MOTION_DDOT":0}]
