ARKYD 6A                
1 43130U 18004V   23320.20128295  .00086774  00000+0  92958-3 0  9990
2 43130  97.3110  41.5095 0004134 282.5847  77.4949 15.63553105325831
CNUSAIL-1               
1 43133U 18004Y   23321.01102234  .00062734  00000+0  83194-3 0  9990
2 43133  97.3132  40.7214 0003735 291.9081  68.1777 15.58052968325855
FOX-1D (AO-92)          
1 43137U 18004AC  23320.19377351  .00098610  00000+0  94110-3 0  9998
2 43137  97.3115  42.6252 0003662 282.8762  77.2089 15.66440081325917
CICERO 7                
1 43143U 18004AJ  23316.95209561  .02592973  24144-5  77798-3 0  9998
2 43143  97.3097  50.6433 0009283 280.2242  79.8004 16.26944402326103
LKW-3                   
1 43146U 18006A   23321.12793493  .00008431  00000+0  36026-3 0  9997
2 43146  97.5466  89.1761 0002983 212.2688 147.8366 15.23112540324862
ASNARO-2                
1 43152U 18007A   23321.13894395 -.00027717  00000+0 -12123-2 0  9990
2 43152  97.4184 325.6849 0004578  93.8140 348.2275 15.22110175323932
XIAOXIANG-2             
1 43155U 18008A   23321.12536744  .00023683  00000+0  72469-3 0  9990
2 43155  97.2760  10.5523 0012062 122.2228 238.0186 15.33764050322028
ZHOU ENLAI              
1 43156U 18008B   23321.16764548  .00028599  00000+0  83013-3 0  9998
2 43156  97.2808  11.0314 0009602 123.0936 237.1231 15.35420372321979
KIPP                    
1 43157U 18008C   23321.11361779  .00042446  00000+0  10778-2 0  9997
2 43157  97.2864  12.1750 0008143 121.9552 238.2486 15.39500059321977
QUANTUTONG 1            
1 43158U 18008D   23321.13010315  .00019753  00000+0  68696-3 0  9995
2 43158  97.2849   7.0245 0010541 127.1956 233.0248 15.29698934321747
JILIN-1 07              
1 43159U 18008E   23321.10801245  .00004250  00000+0  22593-3 0  9995
2 43159  97.2736 358.2424 0012945 149.4300 210.7690 15.15722711321269
JILIN-1 08              
1 43160U 18008F   23321.15209780  .00003942  00000+0  21126-3 0  9996
2 43160  97.2738 358.0706 0009182 159.2000 200.9609 15.15515118321261
SBIRS GEO-3 (USA 282)   
1 43162U 18009A   23321.10839760  .00000142  00000+0  00000+0 0  9994
2 43162   2.6445 328.4666 0001773 239.4722  87.6541  1.00271493 21383
WEINA 1A                
1 43169U 18011A   23320.76296684  .00002417  00000+0  23076-3 0  9996
2 43169  34.9969 104.1045 0002474 122.3822 237.7122 14.92987344316631
YAOGAN-30 K             
1 43170U 18011B   23321.10055324  .00002592  00000+0  24457-3 0  9999
2 43170  34.9960 100.9642 0005908  24.0878 336.0102 14.93423121316680
YAOGAN-30 L             
1 43171U 18011C   23321.09469184  .00002614  00000+0  24668-3 0  9990
2 43171  34.9952 100.8053 0002681  62.0770 298.0206 14.93412590316685
YAOGAN-30 M             
1 43172U 18011D   23321.08749539  .00005078  00000+0  47654-3 0  9992
2 43172  34.9971 100.9785 0002848 118.7000 241.3992 14.93418401316680
